GLOBALSTAR M063 [+]     
1 26081U 00008A   23320.90071013 -.00000056  00000+0  38551-3 0  9992
2 26081  51.9935 194.5400 0003669 296.3847  77.3143 11.86147990 88958
GLOBALSTAR M062 [-]     
1 26082U 00008B   23320.54633788 -.00000040  00000+0  41321-3 0  9998
2 26082  51.9870 357.3258 0006645 317.9860 207.6452 12.43420711424638
GLOBALSTAR M060 [-]     
1 26083U 00008C   23320.19869681  .00000110  00000+0  20031-2 0  9994
2 26083  52.0018 236.4466 0004348  35.4031 112.2150 12.17619967 81834
GLOBALSTAR M064 [-]     
1 26084U 00008D   23320.95393897 -.00000069  00000+0  20289-3 0  9990
2 26084  52.0038 300.0469 0001898  29.4746 330.6194 11.88511707 98349
GLOBALSTAR M065 [+]     
1 31571U 07020A   23320.88151387 -.00000071  00000+0  18242-3 0  9995
2 31571  51.9879 186.3633 0010821 105.7695 266.6643 12.61958056760394
GLOBALSTAR M069 [+]     
1 31573U 07020C   23320.76859137 -.00000098  00000+0  29734-4 0  9990
2 31573  51.9926 142.8089 0001338  96.2403 276.9149 12.62260909761508
GLOBALSTAR M072 [+]     
1 31574U 07020D   23320.24378934 -.00000103  00000+0  50639-5 0  9991
2 31574  52.0087 240.1555 0001111  58.2086 106.4960 12.62268589759702
GLOBALSTAR M071 [P]     
1 31576U 07020F   23320.47859546 -.00000101  00000+0  17547-4 0  9999
2 31576  52.0042 148.6923 0001017  83.2003 289.9463 12.62272941422651
